ATLAS CENTAUR R/B       
1 06155U 72065B   26085.31458556  .00001327  00000+0  18362-3 0  9990
2 06155  35.0006 208.3204 0033164 151.0162 209.2387 14.77732108843720
SL-8 R/B                
1 08459U 75112B   26085.12769381  .00000240  00000+0  87565-4 0  9990
2 08459  74.0633 348.6764 0014516  75.1057 285.1704 14.38213133634235
SL-3 R/B                
1 10114U 77057B   26085.22680117  .00012906  00000+0  26665-3 0  9996
2 10114  97.5798 257.8833 0006607 214.8473 145.2344 15.45953218670883
SEASAT 1                
1 10967U 78064A   26085.16654367  .00000259  00000+0  11080-3 0  9995
2 10967 108.0080 160.0724 0002584 277.9475  82.1377 14.46173411508892
SL-14 R/B               
1 11267U 79011B   26085.07956287  .00000655  00000+0  62114-4 0  9993
2 11267  82.5207  81.0132 0016207   8.7221 351.4277 14.91928157531223
SL-8 R/B                
1 11574U 79089B   26085.25299241  .00000259  00000+0  86167-4 0  9993
2 11574  74.0681  60.3796 0016839 231.0223 128.9435 14.42359977438498
SL-14 R/B               
1 11672U 80005B   26085.03627040  .00000530  00000+0  50984-4 0  9990
2 11672  82.5115 291.7272 0017200 107.3287 252.9815 14.90947880478921
SL-8 R/B                
1 12139U 81003B   26085.02390266  .00020439  00000+0  51351-3 0  9992
2 12139  82.9350 274.9115 0261165 121.7689 240.9276 15.11671572317141
SL-3 R/B                
1 12465U 81046B   26085.26474884  .00011143  00000+0  25578-3 0  9990
2 12465  81.2288 269.8308 0018347 323.8005  36.1995 15.42390203440986
SL-3 R/B                
1 12904U 81103B   26085.27958873  .00004701  00000+0  20705-3 0  9997
2 12904  81.1605 193.9716 0012683 227.2307 132.7858 15.21568899975759
SL-3 R/B                
1 13068U 82013B   26085.28096256  .00003603  00000+0  15477-3 0  9999
2 13068  81.1743 141.3243 0023430 122.9026 237.4465 15.22164229406876
SL-3 R/B                
1 13154U 82039B   26085.28803096  .00002439  00000+0  14665-3 0  9995
2 13154  81.1570 196.8237 0028796 269.7110  90.0815 15.10170933384145
